{"type": "FeatureCollection", "features": [{"type": "Feature", "geometry": {"type": "Point", "coordinates": [35.132863, 31.872037]}, "properties": {"Name": "At Tira", "ClosureType": "road gate", "ClosureStatus": "no change", "Open_Close": "closed"}}, {"type": "Feature", "geometry": {"type": "Point", "coordinates": [35.081952, 31.887326]}, "properties": {"Name": "Kharbatha Al Misbah", "ClosureType": "road gate", "ClosureStatus": "no change", "Open_Close": "closed"}}, {"type": "Feature", "geometry": {"type": "Point", "coordinates": [35.082564, 31.887837]}, "properties": {"Name": "Kharbatha Al Misbah Rd 443 Earthmound North", "ClosureType": "earthmound", "ClosureStatus": "no change", "Open_Close": "not applicable"}}, {"type": "Feature", "geometry": {"type": "Point", "coordinates": [35.05383, 31.986511]}, "properties": {"Name": "Shuqba Earthmound 1", "ClosureType": "earthmound", "ClosureStatus": "no change", "Open_Close": "not applicable"}}, {"type": "Feature", "geometry": {"type": "Point", "coordinates": [35.229826, 31.903619]}, "properties": {"Name": "Al Bireh - Psagot Road Gate", "ClosureType": "road gate", "ClosureStatus": "no change", "Open_Close": "closed"}}, {"type": "Feature", "geometry": {"type": "Point", "coordinates": [35.255342, 31.945509]}, "properties": {"Name": "Ein Yabrud Road 60 Earthmound 8", "ClosureType": "earthmound", "ClosureStatus": "no change", "Open_Close": "not applicable"}}, {"type": "Feature", "geometry": {"type": "Point", "coordinates": [35.045187, 31.995007]}, "properties": {"Name": "Shuqba Earthmound 3", "ClosureType": "earthmound", "ClosureStatus": "no change", "Open_Close": "not applicable"}}, {"type": "Feature", "geometry": {"type": "Point", "coordinates": [35.081041, 31.889039]}, "properties": {"Name": "Kharbatha al Misbah Rd 443 Roadblock North", "ClosureType": "roadblock", "ClosureStatus": "no change", "Open_Close": "closed"}}, {"type": "Feature", "geometry": {"type": "Point", "coordinates": [35.214835, 31.863751]}, "properties": {"Name": "West Qalandiya Barrier Road gate", "ClosureType": "road gate", "ClosureStatus": "no change", "Open_Close": "closed"}}, {"type": "Feature", "geometry": {"type": "Point", "coordinates": [35.248056, 31.913611]}, "properties": {"Name": "Beitin South Road Gate", "ClosureType": "roadblock", "ClosureStatus": "new after changed type", "Open_Close": "closed"}}, {"type": "Feature", "geometry": {"type": "Point", "coordinates": [35.032368, 31.941609]}, "properties": {"Name": "Ni'lin Workers Road Gate", "ClosureType": "road gate", "ClosureStatus": "no change", "Open_Close": "closed"}}, {"type": "Feature", "geometry": {"type": "Point", "coordinates": [35.260563, 31.748228]}, "properties": {"Name": "As Sawahira ash Sharqiya", "ClosureType": "checkpoint", "ClosureStatus": "no change", "Open_Close": "not applicable"}}, {"type": "Feature", "geometry": {"type": "Point", "coordinates": [35.177082, 31.882621]}, "properties": {"Name": "Beituniya", "ClosureType": "checkpoint", "ClosureStatus": "no change", "Open_Close": "not applicable"}}, {"type": "Feature", "geometry": {"type": "Point", "coordinates": [35.225737, 31.924007]}, "properties": {"Name": "Bet El DCO", "ClosureType": "partial checkpoint", "ClosureStatus": "no change", "Open_Close": "not applicable"}}, {"type": "Feature", "geometry": {"type": "Point", "coordinates": [35.289561, 31.742843]}, "properties": {"Name": "Wadi Nar", "ClosureType": "checkpoint", "ClosureStatus": "no change", "Open_Close": "not applicable"}}, {"type": "Feature", "geometry": {"type": "Point", "coordinates": [35.251855, 31.827834]}, "properties": {"Name": "Hizma", "ClosureType": "checkpoint", "ClosureStatus": "no change", "Open_Close": "not applicable"}}, {"type": "Feature", "geometry": {"type": "Point", "coordinates": [35.042403, 31.897628]}, "properties": {"Name": "Maccabim", "ClosureType": "checkpoint", "ClosureStatus": "no change", "Open_Close": "not applicable"}}, {"type": "Feature", "geometry": {"type": "Point", "coordinates": [35.033101, 31.941028]}, "properties": {"Name": "Ni'lin Rd 446", "ClosureType": "checkpoint", "ClosureStatus": "no change", "Open_Close": "not applicable"}}, {"type": "Feature", "geometry": {"type": "Point", "coordinates": [35.227539, 31.862394]}, "properties": {"Name": "Qalandiya", "ClosureType": "checkpoint", "ClosureStatus": "no change", "Open_Close": "not applicable"}}, {"type": "Feature", "geometry": {"type": "Point", "coordinates": [35.259338, 31.780891]}, "properties": {"Name": "Zaytoun", "ClosureType": "checkpoint", "ClosureStatus": "no change", "Open_Close": "not applicable"}}, {"type": "Feature", "geometry": {"type": "Point", "coordinates": [35.243006, 31.809549]}, "properties": {"Name": "Shufat Camp", "ClosureType": "checkpoint", "ClosureStatus": "no change", "Open_Close": "not applicable"}}, {"type": "Feature", "geometry": {"type": "Point", "coordinates": [35.257975, 31.797941]}, "properties": {"Name": "Ras Shihadeh Barrier Road Gate", "ClosureType": "road gate", "ClosureStatus": "no change", "Open_Close": "closed"}}, {"type": "Feature", "geometry": {"type": "Point", "coordinates": [35.263736, 31.783395]}, "properties": {"Name": "Az Za'ayyem", "ClosureType": "checkpoint", "ClosureStatus": "no change", "Open_Close": "not applicable"}}, {"type": "Feature", "geometry": {"type": "Point", "coordinates": [35.251455, 31.739356]}, "properties": {"Name": "Ash Sheikh Sa'd", "ClosureType": "checkpoint", "ClosureStatus": "no change", "Open_Close": "not applicable"}}, {"type": "Feature", "geometry": {"type": "Point", "coordinates": [35.176044, 31.857088]}, "properties": {"Name": "Al Jib", "ClosureType": "checkpoint", "ClosureStatus": "no change", "Open_Close": "not applicable"}}, {"type": "Feature", "geometry": {"type": "Point", "coordinates": [35.15958, 31.831471]}, "properties": {"Name": "Beit Iksa", "ClosureType": "checkpoint", "ClosureStatus": "no change", "Open_Close": "not applicable"}}, {"type": "Feature", "geometry": {"type": "Point", "coordinates": [35.032572, 31.941371]}, "properties": {"Name": "Ni'lin Workers", "ClosureType": "checkpoint", "ClosureStatus": "no change", "Open_Close": "not applicable"}}, {"type": "Feature", "geometry": {"type": "Point", "coordinates": [35.031011, 31.944317]}, "properties": {"Name": "Ni'lin Entrance", "ClosureType": "road gate", "ClosureStatus": "no change", "Open_Close": "open"}}, {"type": "Feature", "geometry": {"type": "Point", "coordinates": [35.04369, 31.896704]}, "properties": {"Name": "Beit Sira", "ClosureType": "checkpoint", "ClosureStatus": "no change", "Open_Close": "not applicable"}}, {"type": "Feature", "geometry": {"type": "Point", "coordinates": [35.104169, 31.886355]}, "properties": {"Name": "Beit 'Ur Al Fauqa", "ClosureType": "checkpoint", "ClosureStatus": "no change", "Open_Close": "not applicable"}}, {"type": "Feature", "geometry": {"type": "Point", "coordinates": [35.171426, 31.872664]}, "properties": {"Name": "Ofer", "ClosureType": "checkpoint", "ClosureStatus": "no change", "Open_Close": "not applicable"}}, {"type": "Feature", "geometry": {"type": "Point", "coordinates": [35.200456, 31.982809]}, "properties": {"Name": "'Atara", "ClosureType": "partial checkpoint", "ClosureStatus": "no change", "Open_Close": "not applicable"}}, {"type": "Feature", "geometry": {"type": "Point", "coordinates": [35.25576, 31.85412]}, "properties": {"Name": "Jaba'", "ClosureType": "partial checkpoint", "ClosureStatus": "no change", "Open_Close": "not applicable"}}, {"type": "Feature", "geometry": {"type": "Point", "coordinates": [35.246922, 31.922018]}, "properties": {"Name": "Beitin Road 60 Earthmound 4", "ClosureType": "earthmound", "ClosureStatus": "no change", "Open_Close": "closed"}}, {"type": "Feature", "geometry": {"type": "Point", "coordinates": [35.24656, 31.921391]}, "properties": {"Name": "Beitin Road 60 Earthmound 3", "ClosureType": "earthmound", "ClosureStatus": "no change", "Open_Close": "closed"}}, {"type": "Feature", "geometry": {"type": "Point", "coordinates": [35.244765, 31.71824]}, "properties": {"Name": "Nu'man north", "ClosureType": "earthmound", "ClosureStatus": "no change", "Open_Close": "not applicable"}}, {"type": "Feature", "geometry": {"type": "Point", "coordinates": [35.286615, 31.886674]}, "properties": {"Name": "Deir Dibwan Earthmound", "ClosureType": "earthmound", "ClosureStatus": "no change", "Open_Close": "closed"}}, {"type": "Feature", "geometry": {"type": "Point", "coordinates": [35.181701, 31.811333]}, "properties": {"Name": "Beit Iksa 5", "ClosureType": "earthmound", "ClosureStatus": "no change", "Open_Close": "not applicable"}}, {"type": "Feature", "geometry": {"type": "Point", "coordinates": [35.178623, 31.809327]}, "properties": {"Name": "Beit Iksa 2", "ClosureType": "earthmound", "ClosureStatus": "no change", "Open_Close": "not applicable"}}, {"type": "Feature", "geometry": {"type": "Point", "coordinates": [35.177845, 31.809677]}, "properties": {"Name": "Beit Iksa 1", "ClosureType": "earthmound", "ClosureStatus": "no change", "Open_Close": "not applicable"}}, {"type": "Feature", "geometry": {"type": "Point", "coordinates": [35.181336, 31.809218]}, "properties": {"Name": "Beit Iksa 3", "ClosureType": "earthmound", "ClosureStatus": "no change", "Open_Close": "not applicable"}}, {"type": "Feature", "geometry": {"type": "Point", "coordinates": [35.181772, 31.808436]}, "properties": {"Name": "Beit Iksa 4", "ClosureType": "earthmound", "ClosureStatus": "no change", "Open_Close": "not applicable"}}, {"type": "Feature", "geometry": {"type": "Point", "coordinates": [35.182003, 31.809187]}, "properties": {"Name": "Beit Iksa 6", "ClosureType": "earthmound", "ClosureStatus": "no change", "Open_Close": "not applicable"}}, {"type": "Feature", "geometry": {"type": "Point", "coordinates": [35.256334, 31.95309]}, "properties": {"Name": "Ein Yabrud Road 60 Earthmound 9", "ClosureType": "earthmound", "ClosureStatus": "no change", "Open_Close": "closed"}}, {"type": "Feature", "geometry": {"type": "Point", "coordinates": [35.252357, 31.941563]}, "properties": {"Name": "Ein Yabrud Road 60 Earthmound 7", "ClosureType": "earthmound", "ClosureStatus": "no change", "Open_Close": "closed"}}, {"type": "Feature", "geometry": {"type": "Point", "coordinates": [35.246685, 31.933023]}, "properties": {"Name": "Beitin Road 60 Earthmound 5", "ClosureType": "earthmound", "ClosureStatus": "no change", "Open_Close": "closed"}}, {"type": "Feature", "geometry": {"type": "Point", "coordinates": [35.075327, 31.891645]}, "properties": {"Name": "Beit 'Ur Al Tahta Rd 443 Earthmound North 1", "ClosureType": "earthmound", "ClosureStatus": "no change", "Open_Close": "closed"}}, {"type": "Feature", "geometry": {"type": "Point", "coordinates": [35.288318, 31.762587]}, "properties": {"Name": "Abu Nwar West Earthmound", "ClosureType": "earthmound", "ClosureStatus": "no change", "Open_Close": "closed"}}, {"type": "Feature", "geometry": {"type": "Point", "coordinates": [35.248669, 31.937075]}, "properties": {"Name": "Beitin Road 60 Earthmound 6", "ClosureType": "earthmound", "ClosureStatus": "no change", "Open_Close": "closed"}}, {"type": "Feature", "geometry": {"type": "Point", "coordinates": [35.224629, 31.91933]}, "properties": {"Name": "Beit El bypass 2", "ClosureType": "earthmound", "ClosureStatus": "no change", "Open_Close": "closed"}}, {"type": "Feature", "geometry": {"type": "Point", "coordinates": [35.125391, 31.937415]}, "properties": {"Name": "Al Janiya Roadblock", "ClosureType": "roadblock", "ClosureStatus": "no change", "Open_Close": "closed"}}, {"type": "Feature", "geometry": {"type": "Point", "coordinates": [35.251684, 31.90816]}, "properties": {"Name": "Burqa", "ClosureType": "earthmound", "ClosureStatus": "no change", "Open_Close": "closed"}}, {"type": "Feature", "geometry": {"type": "Point", "coordinates": [35.297344, 31.74905]}, "properties": {"Name": "Qedar-Wadi an Nar Roadblock", "ClosureType": "roadblock", "ClosureStatus": "no change", "Open_Close": "not applicable"}}, {"type": "Feature", "geometry": {"type": "Point", "coordinates": [35.291552, 31.763835]}, "properties": {"Name": "Abu Nwar East Roadblock", "ClosureType": "roadblock", "ClosureStatus": "no change", "Open_Close": "not applicable"}}, {"type": "Feature", "geometry": {"type": "Point", "coordinates": [35.253905, 31.969506]}, "properties": {"Name": "Yabrud Road 60 Gate", "ClosureType": "road gate", "ClosureStatus": "no change", "Open_Close": "closed"}}, {"type": "Feature", "geometry": {"type": "Point", "coordinates": [35.134998, 31.974199]}, "properties": {"Name": "Nehaliel Road 450 Road Gate", "ClosureType": "road gate", "ClosureStatus": "no change", "Open_Close": "closed"}}, {"type": "Feature", "geometry": {"type": "Point", "coordinates": [35.220359, 31.933618]}, "properties": {"Name": "Beit El West Road Gate", "ClosureType": "road gate", "ClosureStatus": "no change", "Open_Close": "open"}}, {"type": "Feature", "geometry": {"type": "Point", "coordinates": [35.22337, 31.904773]}, "properties": {"Name": "Al Bireh - Psagot Road Gate", "ClosureType": "road gate", "ClosureStatus": "no change", "Open_Close": "open"}}, {"type": "Feature", "geometry": {"type": "Point", "coordinates": [35.117483, 31.954556]}, "properties": {"Name": "Zayit Raanan Rd 450 Gate", "ClosureType": "road gate", "ClosureStatus": "no change", "Open_Close": "closed"}}, {"type": "Feature", "geometry": {"type": "Point", "coordinates": [35.129143, 31.938006]}, "properties": {"Name": "Talmon Road 450 Road Gate", "ClosureType": "road gate", "ClosureStatus": "no change", "Open_Close": "closed"}}, {"type": "Feature", "geometry": {"type": "Point", "coordinates": [35.26181, 31.79894]}, "properties": {"Name": "Isawiya East Road Gate", "ClosureType": "road gate", "ClosureStatus": "no change", "Open_Close": "closed"}}, {"type": "Feature", "geometry": {"type": "Point", "coordinates": [35.170417, 31.831642]}, "properties": {"Name": "Biddu-An Nabi Samuel Road Gate 1", "ClosureType": "road gate", "ClosureStatus": "no change", "Open_Close": "closed"}}, {"type": "Feature", "geometry": {"type": "Point", "coordinates": [35.171803, 31.842319]}, "properties": {"Name": "Nabi Samuel", "ClosureType": "road gate", "ClosureStatus": "no change", "Open_Close": "closed"}}, {"type": "Feature", "geometry": {"type": "Point", "coordinates": [35.142753, 31.925937]}, "properties": {"Name": "Ein Qinya-Dolev East Gate", "ClosureType": "road gate", "ClosureStatus": "no change", "Open_Close": "closed"}}, {"type": "Feature", "geometry": {"type": "Point", "coordinates": [35.165352, 31.831262]}, "properties": {"Name": "Biddu-An Nabi Samuel Road Gate 2", "ClosureType": "road gate", "ClosureStatus": "no change", "Open_Close": "closed"}}, {"type": "Feature", "geometry": {"type": "Point", "coordinates": [35.277237, 31.789076]}, "properties": {"Name": "Za'ayyem Gate", "ClosureType": "road gate", "ClosureStatus": "no change", "Open_Close": "closed"}}, {"type": "Feature", "geometry": {"type": "Point", "coordinates": [35.187463, 31.826309]}, "properties": {"Name": "Beit Iksa to Road 436 (1)", "ClosureType": "road gate", "ClosureStatus": "no change", "Open_Close": "closed"}}, {"type": "Feature", "geometry": {"type": "Point", "coordinates": [35.296652, 31.750363]}, "properties": {"Name": "Qedar Road gate", "ClosureType": "road gate", "ClosureStatus": "no change", "Open_Close": "closed"}}, {"type": "Feature", "geometry": {"type": "Point", "coordinates": [35.255433, 31.957355]}, "properties": {"Name": "Ein Yabrud Road 60 Gate", "ClosureType": "road gate", "ClosureStatus": "no change", "Open_Close": "open"}}, {"type": "Feature", "geometry": {"type": "Point", "coordinates": [35.120807, 31.715516]}, "properties": {"Name": "Wadi Fukin", "ClosureType": "checkpoint", "ClosureStatus": "no change", "Open_Close": "not applicable"}}, {"type": "Feature", "geometry": {"type": "Point", "coordinates": [35.168524, 31.705562]}, "properties": {"Name": "Tunnels", "ClosureType": "checkpoint", "ClosureStatus": "no change", "Open_Close": "not applicable"}}, {"type": "Feature", "geometry": {"type": "Point", "coordinates": [35.205071, 31.723827]}, "properties": {"Name": "Gilo", "ClosureType": "checkpoint", "ClosureStatus": "no change", "Open_Close": "not applicable"}}, {"type": "Feature", "geometry": {"type": "Point", "coordinates": [35.246753, 31.71547]}, "properties": {"Name": "An Nu'man", "ClosureType": "checkpoint", "ClosureStatus": "no change", "Open_Close": "not applicable"}}, {"type": "Feature", "geometry": {"type": "Point", "coordinates": [35.24033, 31.720463]}, "properties": {"Name": "358 Bethlehem An Numan", "ClosureType": "road gate", "ClosureStatus": "no change", "Open_Close": "closed"}}, {"type": "Feature", "geometry": {"type": "Point", "coordinates": [35.146372, 31.733012]}, "properties": {"Name": "walaja B route", "ClosureType": "roadblock", "ClosureStatus": "new after changed type", "Open_Close": "closed"}}, {"type": "Feature", "geometry": {"type": "Point", "coordinates": [35.184397, 31.825949]}, "properties": {"Name": "Beit Iksa RG", "ClosureType": "road gate", "ClosureStatus": "no change", "Open_Close": "closed"}}, {"type": "Feature", "geometry": {"type": "Point", "coordinates": [35.261772, 31.782997]}, "properties": {"Name": "Az Za'ayem Barrier gate", "ClosureType": "road gate", "ClosureStatus": "no change", "Open_Close": "closed"}}, {"type": "Feature", "geometry": {"type": "Point", "coordinates": [35.223901, 31.921947]}, "properties": {"Name": "Beit El DCO South EM", "ClosureType": "earthmound", "ClosureStatus": "no change", "Open_Close": "closed"}}, {"type": "Feature", "geometry": {"type": "Point", "coordinates": [35.253932, 31.943122]}, "properties": {"Name": "Ein Yabrud Road 60 RB", "ClosureType": "road gate", "ClosureStatus": "new after changed type", "Open_Close": "open"}}, {"type": "Feature", "geometry": {"type": "Point", "coordinates": [35.246277, 31.919424]}, "properties": {"Name": "Beitin Road 60 Earthmound 2", "ClosureType": "earthmound", "ClosureStatus": "no change", "Open_Close": "closed"}}, {"type": "Feature", "geometry": {"type": "Point", "coordinates": [35.256532, 31.719145]}, "properties": {"Name": "Sur Bahir Barrier Gate", "ClosureType": "road gate", "ClosureStatus": "no change", "Open_Close": "closed"}}, {"type": "Feature", "geometry": {"type": "Point", "coordinates": [35.248657, 31.732671]}, "properties": {"Name": "Sur Bahir Barrier Gate 2", "ClosureType": "road gate", "ClosureStatus": "no change", "Open_Close": "closed"}}, {"type": "Feature", "geometry": {"type": "Point", "coordinates": [35.251726, 31.738332]}, "properties": {"Name": "Ash Sheikh Sa'ad Barrier Gate", "ClosureType": "road gate", "ClosureStatus": "no change", "Open_Close": "closed"}}, {"type": "Feature", "geometry": {"type": "Point", "coordinates": [35.240756, 31.771928]}, "properties": {"Name": "Ras Al Amoud", "ClosureType": "partial checkpoint", "ClosureStatus": "no change", "Open_Close": "not applicable"}}, {"type": "Feature", "geometry": {"type": "Point", "coordinates": [35.24706, 31.774141]}, "properties": {"Name": "Ras Al Amoud - At Tur Gate", "ClosureType": "road gate", "ClosureStatus": "new after changed type", "Open_Close": "closed"}}, {"type": "Feature", "geometry": {"type": "Point", "coordinates": [35.294125, 31.89006]}, "properties": {"Name": "Deir Dibwan EM 2", "ClosureType": "earthmound", "ClosureStatus": "no change", "Open_Close": "closed"}}, {"type": "Feature", "geometry": {"type": "Point", "coordinates": [35.256688, 31.853747]}, "properties": {"Name": "Jaba' Gate", "ClosureType": "road gate", "ClosureStatus": "no change", "Open_Close": "closed"}}, {"type": "Feature", "geometry": {"type": "Point", "coordinates": [35.0576, 31.89318]}, "properties": {"Name": "Beit Ur At Tahta North EM 2", "ClosureType": "earthmound", "ClosureStatus": "no change", "Open_Close": "closed"}}, {"type": "Feature", "geometry": {"type": "Point", "coordinates": [35.055913, 31.89372]}, "properties": {"Name": "Beit 'Ur At Tahta South Rd Gate", "ClosureType": "road gate", "ClosureStatus": "no change", "Open_Close": "open"}}, {"type": "Feature", "geometry": {"type": "Point", "coordinates": [35.052143, 31.990261]}, "properties": {"Name": "Shuqba East 446 EM 2", "ClosureType": "earthmound", "ClosureStatus": "no change", "Open_Close": "closed"}}, {"type": "Feature", "geometry": {"type": "Point", "coordinates": [35.048181, 31.981876]}, "properties": {"Name": "Shuqba Gate", "ClosureType": "road gate", "ClosureStatus": "no change", "Open_Close": "open"}}, {"type": "Feature", "geometry": {"type": "Point", "coordinates": [35.177182, 31.716302]}, "properties": {"Name": "Beit Jala/DCL Road Gate", "ClosureType": "road gate", "ClosureStatus": "no change", "Open_Close": "open"}}, {"type": "Feature", "geometry": {"type": "Point", "coordinates": [35.243319, 31.795488]}, "properties": {"Name": "Al 'Isawiya Rd Block", "ClosureType": "roadblock", "ClosureStatus": "no change", "Open_Close": "not applicable"}}, {"type": "Feature", "geometry": {"type": "Point", "coordinates": [35.238628, 31.721795]}, "properties": {"Name": "Numan West EM", "ClosureType": "earthmound", "ClosureStatus": "no change", "Open_Close": "closed"}}, {"type": "Feature", "geometry": {"type": "Point", "coordinates": [35.24901, 31.704195]}, "properties": {"Name": "Qaber Helwa", "ClosureType": "partial checkpoint", "ClosureStatus": "no change", "Open_Close": "not applicable"}}, {"type": "Feature", "geometry": {"type": "Point", "coordinates": [35.177833, 31.715976]}, "properties": {"Name": "Beit Jala/DCL", "ClosureType": "partial checkpoint", "ClosureStatus": "no change", "Open_Close": "not applicable"}}, {"type": "Feature", "geometry": {"type": "Point", "coordinates": [35.156465, 31.705078]}, "properties": {"Name": "Al Khadr", "ClosureType": "partial checkpoint", "ClosureStatus": "no change", "Open_Close": "not applicable"}}, {"type": "Feature", "geometry": {"type": "Point", "coordinates": [35.166606, 31.736634]}, "properties": {"Name": "Alwalja-krimzan", "ClosureType": "road gate", "ClosureStatus": "no change", "Open_Close": "closed"}}, {"type": "Feature", "geometry": {"type": "Point", "coordinates": [35.221885, 31.925113]}, "properties": {"Name": " ", "ClosureType": "roadblock", "ClosureStatus": "no change", "Open_Close": "closed"}}, {"type": "Feature", "geometry": {"type": "Point", "coordinates": [35.116662, 31.927614]}, "properties": {"Name": "Deir Ibzi Road gate", "ClosureType": "road gate", "ClosureStatus": "new", "Open_Close": "open"}}, {"type": "Feature", "geometry": {"type": "Point", "coordinates": [35.118206, 31.978952]}, "properties": {"Name": "Beitillu North Road Gate", "ClosureType": "road gate", "ClosureStatus": "new", "Open_Close": "open"}}, {"type": "Feature", "geometry": {"type": "Point", "coordinates": [35.250827, 31.910471]}, "properties": {"Name": "Burqa Rd 463 roadblock", "ClosureType": "roadblock", "ClosureStatus": "new", "Open_Close": "closed"}}, {"type": "Feature", "geometry": {"type": "Point", "coordinates": [35.249561, 31.911197]}, "properties": {"Name": "Beitin Rd Gate", "ClosureType": "road gate", "ClosureStatus": "new", "Open_Close": "closed"}}, {"type": "Feature", "geometry": {"type": "Point", "coordinates": [35.266055, 31.877248]}, "properties": {"Name": "Mikhmas Rd Block", "ClosureType": "roadblock", "ClosureStatus": "new", "Open_Close": "not applicable"}}, {"type": "Feature", "geometry": {"type": "Point", "coordinates": [35.258073, 31.870377]}, "properties": {"Name": "Jaba Rd 60 Rd Gate", "ClosureType": "road gate", "ClosureStatus": "new", "Open_Close": "open"}}, {"type": "Feature", "geometry": {"type": "Point", "coordinates": [35.256831, 31.829514]}, "properties": {"Name": "Hizma Rd 437 EM 1", "ClosureType": "earthmound", "ClosureStatus": "new", "Open_Close": "not applicable"}}, {"type": "Feature", "geometry": {"type": "Point", "coordinates": [35.265304, 31.826053]}, "properties": {"Name": "Tublas Earthmound", "ClosureType": "earthmound", "ClosureStatus": "new", "Open_Close": "not applicable"}}, {"type": "Feature", "geometry": {"type": "Point", "coordinates": [35.272912, 31.821234]}, "properties": {"Name": "Anata FoL Rd block", "ClosureType": "roadblock", "ClosureStatus": "new", "Open_Close": "not applicable"}}, {"type": "Feature", "geometry": {"type": "Point", "coordinates": [35.258027, 31.797022]}, "properties": {"Name": "FoL gate", "ClosureType": "road gate", "ClosureStatus": "new", "Open_Close": "open"}}, {"type": "Feature", "geometry": {"type": "Point", "coordinates": [35.246711, 31.916869]}, "properties": {"Name": "Betin-Road 60 EM 1 -new, replacing the old tower", "ClosureType": "earthmound", "ClosureStatus": "new", "Open_Close": "not applicable"}}, {"type": "Feature", "geometry": {"type": "Point", "coordinates": [35.229285, 31.845024]}, "properties": {"Name": "Dahiyat Al Barid Barrier road gate", "ClosureType": "road gate", "ClosureStatus": "new", "Open_Close": "closed"}}, {"type": "Feature", "geometry": {"type": "Point", "coordinates": [35.048085, 31.89586]}, "properties": {"Name": "Saffa EM", "ClosureType": "earthmound", "ClosureStatus": "new", "Open_Close": "not applicable"}}, {"type": "Feature", "geometry": {"type": "Point", "coordinates": [35.126935, 31.706289]}, "properties": {"Name": "Husan", "ClosureType": "partial checkpoint", "ClosureStatus": "new", "Open_Close": "not applicable"}}, {"type": "Feature", "geometry": {"type": "Point", "coordinates": [35.25506, 31.761621]}, "properties": {"Name": "Qunbar Gate", "ClosureType": "road gate", "ClosureStatus": "new", "Open_Close": "closed"}}, {"type": "Feature", "geometry": {"type": "Point", "coordinates": [35.255174, 31.761704]}, "properties": {"Name": "Surkhi Gate", "ClosureType": "road gate", "ClosureStatus": "new", "Open_Close": "open"}}, {"type": "Feature", "geometry": {"type": "Point", "coordinates": [35.232757, 31.724225]}, "properties": {"Name": "Um Tuba - Wadi al Hummus EM 2", "ClosureType": "earthmound", "ClosureStatus": "new", "Open_Close": "not applicable"}}, {"type": "Feature", "geometry": {"type": "Point", "coordinates": [35.244322, 31.720333]}, "properties": {"Name": "Um Tuba South EM", "ClosureType": "earthmound", "ClosureStatus": "new", "Open_Close": "not applicable"}}, {"type": "Feature", "geometry": {"type": "Point", "coordinates": [35.160406, 31.838861]}, "properties": {"Name": "Biddu Road Gate", "ClosureType": "road gate", "ClosureStatus": "new", "Open_Close": "open"}}, {"type": "Feature", "geometry": {"type": "Point", "coordinates": [35.198452, 31.982879]}, "properties": {"Name": "Atara - Road 465 Road Gate", "ClosureType": "road gate", "ClosureStatus": "new", "Open_Close": "closed"}}, {"type": "Feature", "geometry": {"type": "LineString", "coordinates": [[35.252266, 31.832221], [35.252377, 31.832306], [35.252482, 31.832393], [35.252574, 31.832549], [35.252732, 31.832738], [35.252874, 31.833006], [35.253, 31.833258], [35.253106, 31.833494], [35.253232, 31.833746], [35.253235, 31.833982], [35.253361, 31.834269], [35.253509, 31.834491], [35.253738, 31.834708], [35.253935, 31.8349], [35.254196, 31.835102], [35.25456, 31.835308], [35.254922, 31.835519], [35.255212, 31.835724], [35.255409, 31.835867], [35.255644, 31.83602], [35.255863, 31.836185], [35.256089, 31.836387], [35.25619, 31.836646], [35.2563, 31.83679], [35.256426, 31.836949], [35.256536, 31.837132], [35.256663, 31.837274], [35.256819, 31.83746], [35.256992, 31.837703], [35.257168, 31.83791], [35.257351, 31.838093], [35.257614, 31.838164], [35.257867, 31.838291], [35.258143, 31.838305], [35.258399, 31.8383], [35.258802, 31.83839], [35.259181, 31.838407], [35.259521, 31.838396], [35.259942, 31.838411], [35.260116, 31.838413], [35.260292, 31.838424], [35.260472, 31.83843], [35.260643, 31.838435], [35.260827, 31.83845], [35.261005, 31.838466], [35.262427, 31.838724], [35.262591, 31.838782], [35.265052, 31.839794]]}, "properties": {"Name": "Hizma Village Road Barrier 1", "ClosureTypeL": 2, "Status": "2"}}, {"type": "Feature", "geometry": {"type": "LineString", "coordinates": [[35.214594, 31.863908], [35.214816, 31.86376], [35.215069, 31.863642], [35.215368, 31.863391], [35.215795, 31.863038], [35.216393, 31.862588], [35.216924, 31.86222], [35.216702, 31.861991], [35.216487, 31.861777], [35.216268, 31.861591], [35.216107, 31.861431], [35.215965, 31.861318], [35.215864, 31.861201], [35.215694, 31.861005], [35.215612, 31.860862], [35.215488, 31.860682], [35.215419, 31.860497], [35.215353, 31.860376], [35.214883, 31.860192], [35.214147, 31.860128], [35.213328, 31.860002], [35.21263, 31.859891], [35.212031, 31.859807], [35.211447, 31.859736], [35.210834, 31.859597], [35.210261, 31.859358], [35.209827, 31.859174], [35.209446, 31.858912]]}, "properties": {"Name": "Qalandiya airport road barrier", "ClosureTypeL": 2, "Status": "2"}}, {"type": "Feature", "geometry": {"type": "LineString", "coordinates": [[35.171492, 31.872292], [35.171397, 31.872316], [35.1713, 31.872337], [35.1712, 31.872365], [35.171113, 31.872381], [35.171021, 31.872397], [35.170925, 31.872416], [35.170829, 31.872436], [35.170728, 31.872457], [35.170632, 31.872477], [35.170538, 31.872499], [35.170444, 31.872522], [35.170351, 31.872538], [35.17026, 31.872556], [35.170166, 31.872572], [35.170071, 31.872592], [35.169981, 31.872613], [35.169893, 31.872632], [35.169802, 31.872646], [35.169713, 31.872668], [35.169627, 31.872687], [35.169543, 31.872703], [35.169457, 31.872724], [35.169373, 31.872744], [35.169293, 31.872757], [35.169215, 31.872771], [35.169133, 31.872785], [35.169043, 31.872803], [35.168952, 31.872822], [35.168854, 31.872846], [35.168756, 31.872866], [35.16866, 31.872881], [35.168546, 31.872903], [35.168418, 31.872927], [35.168277, 31.872951], [35.168123, 31.872989], [35.167963, 31.873023], [35.167797, 31.873059], [35.167622, 31.873095], [35.167446, 31.87313], [35.167267, 31.873169], [35.167081, 31.873215], [35.166889, 31.873255], [35.166696, 31.873291], [35.166498, 31.873336], [35.166303, 31.873373], [35.166101, 31.873414], [35.165899, 31.873456], [35.165696, 31.873509], [35.165496, 31.873551], [35.165305, 31.873591], [35.16512, 31.873628], [35.164938, 31.873662], [35.16476, 31.873693], [35.164584, 31.873728], [35.16441, 31.873763], [35.164239, 31.873791], [35.164067, 31.873826], [35.163894, 31.873856], [35.163719, 31.873895], [35.163542, 31.873932], [35.163368, 31.873962], [35.163193, 31.873989], [35.163013, 31.874016], [35.16283, 31.874041], [35.162643, 31.874062], [35.162454, 31.874078], [35.162265, 31.87409], [35.162078, 31.874094], [35.161887, 31.874095], [35.161691, 31.874091], [35.161488, 31.874086], [35.161289, 31.874073], [35.161094, 31.87405], [35.160892, 31.874019], [35.160692, 31.873983], [35.160493, 31.873943], [35.160298, 31.873905], [35.160108, 31.873867], [35.159917, 31.873819], [35.159724, 31.873764], [35.159536, 31.873709], [35.15935, 31.873643], [35.159167, 31.873573], [35.158987, 31.873505], [35.158809, 31.873432], [35.158634, 31.873357], [35.158461, 31.873272], [35.158291, 31.87318], [35.158125, 31.873089], [35.157963, 31.872996], [35.157805, 31.8729], [35.157651, 31.872805], [35.157499, 31.872701], [35.157353, 31.872588], [35.157208, 31.872472], [35.157066, 31.872353], [35.156924, 31.872236], [35.156785, 31.872118], [35.156647, 31.872002], [35.15651, 31.871889], [35.156376, 31.871775], [35.156247, 31.871657], [35.156118, 31.871543], [35.155988, 31.87143], [35.155859, 31.871318], [35.15573, 31.87121], [35.155603, 31.871101], [35.15548, 31.870987], [35.155355, 31.870873], [35.155227, 31.870765], [35.155099, 31.870657], [35.154973, 31.870548], [35.154846, 31.870441], [35.154717, 31.870335], [35.154582, 31.87023], [35.15444, 31.870131], [35.154298, 31.87003], [35.15415, 31.869932], [35.153997, 31.869844], [35.153836, 31.869759], [35.153669, 31.86968], [35.153497, 31.869606], [35.15332, 31.86954], [35.153139, 31.869479], [35.152951, 31.86942], [35.152761, 31.869373], [35.15257, 31.86933], [35.152375, 31.869297], [35.152175, 31.869267], [35.151973, 31.869249], [35.15177, 31.869248], [35.151565, 31.869253], [35.151354, 31.869265], [35.151149, 31.869283], [35.15095, 31.869304], [35.150755, 31.869324], [35.150561, 31.869346], [35.150372, 31.869365], [35.150193, 31.869378], [35.150017, 31.869394], [35.149842, 31.869409], [35.149664, 31.869424], [35.149489, 31.86944], [35.149319, 31.869457], [35.149151, 31.869477], [35.148983, 31.869499], [35.148816, 31.869512], [35.14865, 31.869526], [35.148482, 31.869542], [35.148314, 31.869557], [35.148145, 31.869576], [35.147971, 31.869597], [35.147793, 31.869616], [35.147614, 31.869634], [35.147437, 31.869646], [35.147257, 31.869663], [35.147076, 31.869678], [35.146891, 31.869697], [35.14671, 31.869711], [35.146531, 31.869723], [35.14635, 31.869737], [35.146172, 31.869749], [35.146005, 31.869756], [35.145831, 31.869768], [35.14565, 31.869775], [35.145472, 31.869774], [35.145293, 31.869769], [35.145114, 31.869762], [35.144933, 31.869754], [35.14475, 31.869741], [35.144568, 31.86973], [35.144382, 31.869716], [35.144188, 31.869704], [35.143993, 31.869685], [35.143796, 31.869662], [35.143594, 31.869647], [35.14339, 31.869632], [35.143184, 31.869617], [35.142979, 31.869603], [35.142774, 31.869588], [35.142564, 31.869577], [35.142356, 31.869563], [35.142146, 31.869549], [35.14194, 31.86953], [35.14173, 31.869513], [35.141516, 31.869499], [35.141301, 31.869488], [35.141089, 31.869476], [35.140876, 31.869468], [35.140661, 31.869461], [35.140448, 31.869454], [35.140238, 31.869455], [35.140032, 31.869459], [35.139825, 31.869463], [35.13961, 31.869474], [35.139406, 31.869482], [35.139201, 31.8695], [35.138995, 31.869516], [35.13879, 31.869539], [35.138586, 31.869561], [35.13838, 31.869589], [35.138179, 31.869618], [35.137982, 31.869651], [35.137777, 31.869691], [35.137572, 31.86974], [35.137369, 31.869791], [35.13717, 31.86985], [35.136972, 31.869908], [35.136776, 31.869971], [35.136583, 31.870035], [35.136399, 31.870103], [35.136215, 31.870182], [35.136036, 31.870268], [35.135861, 31.870352], [35.13569, 31.870435], [35.135518, 31.870522], [35.13535, 31.870611], [35.135179, 31.870711], [35.135011, 31.870812], [35.134845, 31.870919], [35.13468, 31.871021], [35.134387, 31.871198]]}, "properties": {"Name": "Road 443 Road Barrier South 1", "ClosureTypeL": 2, "Status": "2"}}, {"type": "Feature", "geometry": {"type": "LineString", "coordinates": [[35.199686, 31.828581], [35.199686, 31.828592], [35.199683, 31.828616], [35.199686, 31.82865], [35.19969, 31.828691], [35.199689, 31.828709], [35.199691, 31.828721], [35.199698, 31.828746], [35.199704, 31.828786], [35.199709, 31.828835], [35.199713, 31.828885], [35.199726, 31.82895], [35.199727, 31.828996], [35.199731, 31.829016], [35.199732, 31.829032], [35.19974, 31.829042], [35.199746, 31.829055], [35.199744, 31.829071], [35.199747, 31.829097], [35.199736, 31.829124], [35.199708, 31.82914], [35.199668, 31.829156], [35.199621, 31.829167], [35.19959, 31.829166], [35.199561, 31.829167], [35.199531, 31.829169], [35.1995, 31.829188], [35.199474, 31.829216], [35.199451, 31.829244], [35.199434, 31.829274], [35.199429, 31.829299], [35.199429, 31.829329], [35.199425, 31.829373], [35.199418, 31.829416], [35.199403, 31.82946], [35.199383, 31.829494], [35.199364, 31.829525], [35.199344, 31.829541], [35.199319, 31.829563], [35.199295, 31.829586], [35.199269, 31.829614], [35.199236, 31.829658], [35.19922, 31.8297], [35.199203, 31.829737], [35.199187, 31.829767], [35.199166, 31.829787], [35.199139, 31.82981], [35.199098, 31.829832], [35.199051, 31.829845], [35.199002, 31.829829], [35.19895, 31.829814], [35.198896, 31.829812], [35.198854, 31.82981], [35.198835, 31.829796], [35.198825, 31.829772], [35.198812, 31.829742], [35.198785, 31.829713], [35.198778, 31.829697], [35.198785, 31.829679], [35.198784, 31.829672], [35.198784, 31.829673]]}, "properties": {"Name": "Road Barrier", "ClosureTypeL": 2, "Status": "2"}}, {"type": "Feature", "geometry": {"type": "LineString", "coordinates": [[35.263671, 31.783032], [35.264157, 31.78296], [35.264737, 31.782905], [35.265149, 31.782904], [35.265831, 31.782963], [35.266544, 31.78309], [35.267537, 31.783434]]}, "properties": {"Name": "Road Barrier", "ClosureTypeL": 2, "Status": "2"}}, {"type": "Feature", "geometry": {"type": "LineString", "coordinates": [[35.260254, 31.799712], [35.260056, 31.799554], [35.259825, 31.799377], [35.259545, 31.79915], [35.25927, 31.798935], [35.259004, 31.798676], [35.258729, 31.798486], [35.25845, 31.798311], [35.258201, 31.79815], [35.257952, 31.79792], [35.257836, 31.79769], [35.257842, 31.797502], [35.257842, 31.797487], [35.257746, 31.797453], [35.257767, 31.797274], [35.257907, 31.797054], [35.257934, 31.79698], [35.258099, 31.796354], [35.258341, 31.795455], [35.258443, 31.795063], [35.258686, 31.794181], [35.258885, 31.793351], [35.25982, 31.789895], [35.260023, 31.789214], [35.260148, 31.78872], [35.260262, 31.788374], [35.260314, 31.788142], [35.260486, 31.787321], [35.260542, 31.787133], [35.260602, 31.786981], [35.260676, 31.786833], [35.260762, 31.786704], [35.260945, 31.786481], [35.261075, 31.786351], [35.261199, 31.786221], [35.261352, 31.786032], [35.261485, 31.785846], [35.26164, 31.785635], [35.261643, 31.785478], [35.261668, 31.785375], [35.261722, 31.785329], [35.261863, 31.785259], [35.261975, 31.78514], [35.262068, 31.784991], [35.262124, 31.784853], [35.262152, 31.784713], [35.262149, 31.784574], [35.262134, 31.784458], [35.262133, 31.784341], [35.262148, 31.784215], [35.262212, 31.784138], [35.262349, 31.784029], [35.262477, 31.783906], [35.262607, 31.783844], [35.262754, 31.783759], [35.262926, 31.783658], [35.26312, 31.783569], [35.263296, 31.783516], [35.263461, 31.783449], [35.263612, 31.783395], [35.263699, 31.783393]]}, "properties": {"Name": "Road Barrier", "ClosureTypeL": 2, "Status": "2"}}, {"type": "Feature", "geometry": {"type": "LineString", "coordinates": [[35.260256, 31.799716], [35.260461, 31.799895], [35.260824, 31.80018], [35.261099, 31.800397], [35.261422, 31.800662], [35.261742, 31.800929], [35.262068, 31.801201], [35.262406, 31.801466], [35.262755, 31.801733], [35.263196, 31.802082], [35.263665, 31.802454], [35.264261, 31.802876], [35.264684, 31.803192], [35.265186, 31.80355], [35.265708, 31.803914], [35.266172, 31.804249], [35.266635, 31.804536], [35.267011, 31.80478], [35.267382, 31.805027], [35.267829, 31.805351], [35.268179, 31.805584], [35.268594, 31.805886], [35.268899, 31.806067], [35.269251, 31.806311], [35.269787, 31.806732], [35.270209, 31.807049], [35.270453, 31.807241], [35.2707, 31.807442], [35.27096, 31.807665], [35.271226, 31.807909], [35.271495, 31.808171], [35.271751, 31.808459], [35.271976, 31.808751], [35.272163, 31.809036], [35.272389, 31.80948], [35.272548, 31.809855], [35.272695, 31.810225], [35.272752, 31.810543], [35.272816, 31.810863], [35.272909, 31.811289], [35.272972, 31.81162], [35.273036, 31.811938], [35.273139, 31.81249], [35.273286, 31.813136], [35.273422, 31.813669], [35.273526, 31.814097], [35.27364, 31.814549], [35.273753, 31.815163], [35.273894, 31.81587], [35.27398, 31.81629], [35.2741, 31.816795], [35.274154, 31.817071], [35.274232, 31.817439], [35.274323, 31.817816], [35.274416, 31.818305], [35.274398, 31.818613], [35.274342, 31.818919], [35.274226, 31.819203], [35.274076, 31.819494], [35.273911, 31.819755], [35.273671, 31.820093], [35.273536, 31.820253], [35.273424, 31.820438], [35.273334, 31.820637], [35.27322, 31.820871], [35.273096, 31.821143], [35.273068, 31.821343]]}, "properties": {"Name": "Road Barrier", "ClosureTypeL": 2, "Status": "2"}}, {"type": "Feature", "geometry": {"type": "LineString", "coordinates": [[35.297205, 31.749247], [35.297208, 31.74922], [35.297178, 31.749343], [35.29714, 31.749457], [35.29709, 31.749555], [35.29702, 31.749658], [35.296972, 31.749745], [35.296917, 31.749855], [35.296872, 31.749952], [35.296818, 31.750057], [35.296772, 31.750142], [35.296715, 31.750225], [35.296658, 31.750347], [35.296617, 31.75046]]}, "properties": {"Name": "Qedar-Wadi an Nar Road Barrier", "ClosureTypeL": 2, "Status": "2"}}, {"type": "Feature", "geometry": {"type": "LineString", "coordinates": [[35.149043, 31.705797], [35.149052, 31.70578], [35.148932, 31.705775], [35.148825, 31.705783], [35.1487, 31.705832], [35.148575, 31.705802], [35.148455, 31.705778], [35.148302, 31.705752], [35.148135, 31.705718], [35.14796, 31.705678], [35.147765, 31.705642], [35.147583, 31.705567], [35.147485, 31.705522], [35.14739, 31.705472], [35.147295, 31.70542], [35.1472, 31.705365], [35.147107, 31.705307], [35.147018, 31.705247], [35.146932, 31.705187], [35.146848, 31.705127], [35.146767, 31.705067], [35.146683, 31.705007], [35.1466, 31.704947], [35.146513, 31.704882], [35.146423, 31.704815], [35.14633, 31.704747], [35.146232, 31.704675], [35.146133, 31.704602], [35.146032, 31.704527], [35.145928, 31.70445], [35.145823, 31.704372], [35.145717, 31.704293], [35.145612, 31.704218], [35.145508, 31.704145], [35.145407, 31.704073], [35.145302, 31.704005], [35.14519, 31.703937], [35.14507, 31.703873], [35.144943, 31.703815], [35.14481, 31.703765], [35.144675, 31.703722], [35.144545, 31.703688], [35.144412, 31.703667], [35.144283, 31.703653], [35.14416, 31.703645], [35.144038, 31.703642], [35.14391, 31.703645], [35.143777, 31.703655], [35.143637, 31.703673], [35.143493, 31.703705], [35.143347, 31.703745], [35.143197, 31.703797], [35.143047, 31.70386], [35.142902, 31.703938], [35.142763, 31.704027], [35.142635, 31.704123], [35.142515, 31.704227], [35.142405, 31.704333], [35.142303, 31.704437], [35.142208, 31.704537], [35.142122, 31.70463], [35.142045, 31.704715], [35.141978, 31.70479], [35.141865, 31.70491], [35.141765, 31.705012], [35.14168, 31.705098], [35.141602, 31.705173], [35.141512, 31.705263], [35.141445, 31.705338], [35.141352, 31.705435], [35.141282, 31.705503], [35.141195, 31.705588], [35.141107, 31.705675], [35.141013, 31.705758], [35.140917, 31.705843], [35.140825, 31.705917], [35.140738, 31.705978], [35.140648, 31.706038], [35.140557, 31.706097], [35.14046, 31.706148], [35.140362, 31.706197], [35.140252, 31.70624], [35.14011, 31.706285], [35.139937, 31.70633], [35.139735, 31.706367], [35.139528, 31.706393], [35.139418, 31.7064], [35.139307, 31.7064], [35.139195, 31.706398], [35.139087, 31.706388], [35.138978, 31.706375], [35.138868, 31.706357], [35.13876, 31.706332], [35.13865, 31.706305], [35.138537, 31.706275], [35.13842, 31.706242], [35.1383, 31.706205], [35.138177, 31.706167], [35.138052, 31.706123], [35.137927, 31.706082], [35.137803, 31.70604], [35.137678, 31.705998], [35.137557, 31.705958], [35.137435, 31.705918], [35.137312, 31.705878], [35.137188, 31.705837], [35.137063, 31.705795], [35.136938, 31.705752], [35.136813, 31.70571], [35.13669, 31.70567], [35.136567, 31.70563], [35.136447, 31.70559], [35.136328, 31.705552], [35.136208, 31.705512], [35.136087, 31.70547], [35.135963, 31.705427], [35.135835, 31.705383], [35.135703, 31.705338], [35.135568, 31.705293], [35.135428, 31.705245], [35.135283, 31.705197], [35.135135, 31.705147], [35.134985, 31.705097], [35.134832, 31.705045], [35.134677, 31.704993], [35.134522, 31.704945], [35.134365, 31.704893], [35.13421, 31.704842], [35.134055, 31.70479], [35.133902, 31.70474], [35.133748, 31.70469], [35.133598, 31.704642], [35.13345, 31.704595], [35.133305, 31.704548], [35.133165, 31.704502], [35.133028, 31.704453], [35.132893, 31.704408], [35.132758, 31.704362], [35.132627, 31.704315], [35.132498, 31.70427], [35.132372, 31.704227], [35.132245, 31.704185], [35.132118, 31.704143], [35.131992, 31.704102], [35.131865, 31.70406], [35.131737, 31.704017], [35.131607, 31.703977], [35.131477, 31.703937], [35.131348, 31.703898], [35.131223, 31.703858], [35.131098, 31.703818], [35.130973, 31.703782], [35.130845, 31.703752], [35.130715, 31.703727], [35.130582, 31.703712], [35.130448, 31.703703], [35.130315, 31.703705], [35.130178, 31.703715], [35.130043, 31.703733], [35.129908, 31.703757], [35.12977, 31.703792], [35.129638, 31.703838], [35.12951, 31.703893], [35.129383, 31.703952], [35.129258, 31.704017], [35.129138, 31.704085], [35.129023, 31.704157], [35.128915, 31.70423], [35.128815, 31.704303], [35.12873, 31.704372], [35.128623, 31.704467], [35.128603, 31.704562]]}, "properties": {"Name": "husan", "ClosureTypeL": 2, "Status": "2"}}, {"type": "Feature", "geometry": {"type": "LineString", "coordinates": [[35.190886, 31.866318], [35.190697, 31.86641], [35.190567, 31.866467], [35.190438, 31.866517], [35.19031, 31.866572], [35.190178, 31.866622], [35.19004, 31.866673], [35.18991, 31.866713], [35.189777, 31.866757], [35.189643, 31.866802], [35.189512, 31.866848], [35.189378, 31.866898], [35.18924, 31.86695], [35.189098, 31.867], [35.188958, 31.867053], [35.18882, 31.867108], [35.188678, 31.867167], [35.188533, 31.867217], [35.188383, 31.867265], [35.188232, 31.86732], [35.188062, 31.867383], [35.187903, 31.867455], [35.187742, 31.867522], [35.187572, 31.867597], [35.18739, 31.867668], [35.187215, 31.86775], [35.18704, 31.867828], [35.186848, 31.867898], [35.186672, 31.86797], [35.186503, 31.868028], [35.186333, 31.868087], [35.186162, 31.868142], [35.186, 31.868208], [35.185838, 31.868277], [35.185673, 31.868343], [35.185495, 31.868413], [35.185338, 31.868468], [35.185185, 31.868527], [35.185028, 31.86859], [35.184887, 31.868642], [35.184742, 31.868697], [35.184592, 31.868757], [35.184447, 31.868815], [35.184292, 31.868878], [35.18414, 31.868938], [35.183985, 31.868995], [35.183842, 31.869052], [35.18371, 31.869102], [35.183573, 31.869157], [35.18344, 31.869218], [35.1833, 31.869283], [35.183157, 31.869347], [35.183018, 31.869415], [35.182875, 31.869477], [35.18272, 31.869547], [35.182565, 31.869618], [35.182422, 31.869682], [35.18227, 31.869747], [35.182122, 31.869822], [35.181972, 31.869895], [35.181828, 31.869973], [35.181685, 31.870045], [35.181543, 31.870115], [35.181405, 31.87018], [35.181275, 31.870248], [35.181153, 31.870317], [35.181025, 31.870383], [35.180898, 31.87045], [35.180772, 31.870518], [35.18064, 31.87059], [35.180502, 31.870657], [35.180373, 31.870727], [35.18023, 31.870797], [35.180083, 31.870867], [35.179943, 31.870932], [35.179805, 31.87099], [35.179665, 31.871043], [35.179528, 31.87109], [35.179397, 31.871145], [35.179275, 31.871203], [35.17917, 31.871248], [35.179123, 31.871354], [35.179085, 31.87143], [35.179062, 31.871543], [35.179029, 31.871717], [35.178994, 31.871867], [35.179092, 31.871989], [35.179159, 31.87208], [35.179317, 31.872313], [35.179468, 31.872565], [35.179557, 31.87285], [35.179809, 31.873191], [35.179878, 31.873401], [35.179904, 31.873499], [35.179904, 31.874045], [35.179871, 31.874302], [35.179774, 31.87439], [35.179379, 31.874394], [35.179307, 31.874411], [35.17928, 31.874428], [35.179252, 31.874476], [35.179231, 31.874534], [35.179201, 31.874645], [35.17914, 31.874872], [35.179051, 31.875137], [35.179005, 31.875316], [35.178975, 31.87549], [35.178924, 31.875672], [35.178844, 31.875856], [35.178754, 31.876077], [35.178647, 31.876318], [35.178561, 31.876503], [35.178438, 31.8767], [35.178357, 31.876894], [35.17824, 31.877191], [35.178136, 31.877473], [35.178006, 31.877991], [35.177913, 31.878409], [35.177787, 31.878774], [35.177602, 31.879449], [35.177482, 31.880008], [35.177397, 31.880276], [35.177313, 31.880512], [35.177132, 31.880527], [35.176982, 31.880516], [35.176688, 31.88046], [35.176572, 31.880433], [35.176522, 31.880438], [35.176525, 31.880559], [35.1765, 31.880771], [35.176498, 31.881041], [35.176525, 31.881224], [35.17655, 31.881316], [35.176573, 31.881582], [35.176873, 31.881825], [35.177049, 31.881868], [35.177189, 31.881915], [35.177294, 31.882082], [35.177299, 31.882283], [35.177296, 31.882455]]}, "properties": {"Name": "Qalandiya-Rafat Road Barrier 3", "ClosureTypeL": 2, "Status": "2"}}, {"type": "Feature", "geometry": {"type": "LineString", "coordinates": [[35.061457, 31.891545], [35.06144, 31.891548], [35.061368, 31.891637], [35.061188, 31.891685], [35.061012, 31.891703], [35.06088, 31.891735], [35.060792, 31.891813], [35.060529, 31.892034], [35.06023, 31.892112], [35.059904, 31.892216], [35.059592, 31.892332], [35.059308, 31.892443], [35.059024, 31.892547], [35.058544, 31.892784], [35.058252, 31.892971], [35.058034, 31.893075], [35.057641, 31.893143]]}, "properties": {"Name": "Beit 'Ur Al Tahta Rd 443 Rd Barrier North 5", "ClosureTypeL": 2, "Status": "2"}}, {"type": "Feature", "geometry": {"type": "LineString", "coordinates": [[35.169874, 31.831207], [35.169898, 31.831262], [35.16998, 31.83134], [35.170076, 31.831396], [35.170171, 31.83145], [35.170278, 31.831479], [35.170349, 31.831548], [35.170447, 31.831583], [35.170551, 31.831609], [35.170665, 31.831623], [35.170768, 31.831685], [35.170862, 31.831743]]}, "properties": {"Name": "Biddu-Nabi Samuel Ew", "ClosureTypeL": 1, "Status": "2"}}, {"type": "Feature", "geometry": {"type": "LineString", "coordinates": [[35.25116, 31.831582], [35.251045, 31.83146], [35.250941, 31.831333], [35.250916, 31.831204], [35.250895, 31.831066], [35.250898, 31.830923], [35.250944, 31.830779], [35.251026, 31.830701], [35.251159, 31.830646], [35.251287, 31.830611], [35.251421, 31.830599], [35.251555, 31.830596], [35.25175, 31.830579], [35.251933, 31.830532], [35.252105, 31.830453], [35.252253, 31.830331], [35.252421, 31.830132], [35.252643, 31.829833], [35.252816, 31.8296], [35.252968, 31.829378], [35.253109, 31.829199], [35.253208, 31.82914]]}, "properties": {"Name": "Hizma Village Road Barrier 2", "ClosureTypeL": 2, "Status": "2"}}, {"type": "Feature", "geometry": {"type": "LineString", "coordinates": [[35.18895, 31.827382], [35.188855, 31.827417], [35.188732, 31.827404], [35.188678, 31.827564], [35.188304, 31.829143], [35.188153, 31.829523], [35.187874, 31.829994], [35.187604, 31.830312], [35.186998, 31.830815], [35.186411, 31.831135], [35.185931, 31.831324], [35.185558, 31.831401], [35.185266, 31.831464], [35.184899, 31.831496], [35.184422, 31.831504], [35.183997, 31.831471], [35.18301, 31.831371], [35.183024, 31.831412], [35.183133, 31.831468]]}, "properties": {"Name": "An Nabi Samuel 1", "ClosureTypeL": 2, "Status": "2"}}, {"type": "Feature", "geometry": {"type": "LineString", "coordinates": [[35.082028, 31.887034], [35.083301, 31.886072], [35.084851, 31.884764], [35.085664, 31.884156], [35.085937, 31.883992], [35.086255, 31.883808], [35.086706, 31.883596], [35.087153, 31.883446], [35.088973, 31.883141]]}, "properties": {"Name": "Kharbatha al Misbah Rd 443 Rd Barrier South", "ClosureTypeL": 2, "Status": "2"}}, {"type": "Feature", "geometry": {"type": "LineString", "coordinates": [[35.075143, 31.891384], [35.074995, 31.891384], [35.074856, 31.891386], [35.074667, 31.891456], [35.074434, 31.891546], [35.074161, 31.891579], [35.073859, 31.891579], [35.073472, 31.891542], [35.073162, 31.891438], [35.072868, 31.891318], [35.07257, 31.891214], [35.07236, 31.89115], [35.072061, 31.891021], [35.071689, 31.890908], [35.071385, 31.890822]]}, "properties": {"Name": "Beit Ur Al Tahta Rd 443 Rd Barrier North 3", "ClosureTypeL": 2, "Status": "2"}}, {"type": "Feature", "geometry": {"type": "LineString", "coordinates": [[35.069908, 31.89056], [35.069826, 31.890643], [35.069619, 31.89067], [35.06944, 31.890668], [35.069166, 31.890639], [35.068974, 31.89059], [35.068793, 31.890502], [35.068585, 31.890453], [35.068394, 31.890423], [35.068243, 31.890425], [35.068138, 31.890474], [35.068022, 31.890524], [35.067821, 31.890546], [35.067438, 31.890543], [35.067086, 31.890539], [35.066739, 31.89054], [35.066487, 31.890516], [35.066273, 31.890481]]}, "properties": {"Name": "Beit 'Ur Al Tahta Rd 443 Rd Barrier North 4", "ClosureTypeL": 2, "Status": "2"}}, {"type": "Feature", "geometry": {"type": "LineString", "coordinates": [[35.094685, 31.885786], [35.091099, 31.884171], [35.090825, 31.884074], [35.090446, 31.883966], [35.090082, 31.883896], [35.089765, 31.88385], [35.089486, 31.883844], [35.08899, 31.883835], [35.088493, 31.883879], [35.088067, 31.883948], [35.08771, 31.88402], [35.087366, 31.884097], [35.086967, 31.884232], [35.086548, 31.884446], [35.086249, 31.884614], [35.086008, 31.884765], [35.082848, 31.887293]]}, "properties": {"Name": "Beit 'Ur at Tahta Rd 443 Rd Barrier North 2", "ClosureTypeL": 2, "Status": "2"}}, {"type": "Feature", "geometry": {"type": "LineString", "coordinates": [[35.213273, 31.859694], [35.213028, 31.859647], [35.212798, 31.859555], [35.21246, 31.859512], [35.211955, 31.859408], [35.211434, 31.859295], [35.210454, 31.859037], [35.210143, 31.858756], [35.209722, 31.858335], [35.209323, 31.857855], [35.209226, 31.857629], [35.209385, 31.85745], [35.209637, 31.857225], [35.20994, 31.85683], [35.210279, 31.856323], [35.210567, 31.855712], [35.211066, 31.854199], [35.210794, 31.853604], [35.210715, 31.852462], [35.21067, 31.850863], [35.210775, 31.84994], [35.210803, 31.848753], [35.210872, 31.847994], [35.211563, 31.84422], [35.211848, 31.842464], [35.211872, 31.842002], [35.211901, 31.841424], [35.211908, 31.84069], [35.211867, 31.838977], [35.211793, 31.837269], [35.211674, 31.833664], [35.211653, 31.833059], [35.211683, 31.83273], [35.211719, 31.832328], [35.211844, 31.83187], [35.211999, 31.831302], [35.212199, 31.830675], [35.21317, 31.828583], [35.214202, 31.826436], [35.214526, 31.825649], [35.214667, 31.825191], [35.214783, 31.824681], [35.214832, 31.824277], [35.214955, 31.82364], [35.214907, 31.823208]]}, "properties": {"Name": "Beit Hanina Road 45 Road Barrier 2", "ClosureTypeL": 2, "Status": "2"}}, {"type": "Feature", "geometry": {"type": "LineString", "coordinates": [[35.204991, 31.860001], [35.207526, 31.858783], [35.208078, 31.858453], [35.208699, 31.858047], [35.208733, 31.858074], [35.209446, 31.858912]]}, "properties": {"Name": "Qalandiya fence", "ClosureTypeL": 2, "Status": "2"}}, {"type": "Feature", "geometry": {"type": "LineString", "coordinates": [[35.182472, 31.831719], [35.182336, 31.831582], [35.182286, 31.831297], [35.181255, 31.831192], [35.177042, 31.830698], [35.176395, 31.830623], [35.175991, 31.830605], [35.175687, 31.830618], [35.17544, 31.830664], [35.175127, 31.830753], [35.174875, 31.83087], [35.174598, 31.830999], [35.174357, 31.831202], [35.174029, 31.831511], [35.173884, 31.831747], [35.17373, 31.832087], [35.17367, 31.832337], [35.173665, 31.832551], [35.173661, 31.832732], [35.173693, 31.832948], [35.173797, 31.833255], [35.173912, 31.83345], [35.174123, 31.833696], [35.174495, 31.834009], [35.174727, 31.834144], [35.174914, 31.834182], [35.17507, 31.834151], [35.175328, 31.833955], [35.175557, 31.833703], [35.175785, 31.833442], [35.175949, 31.833257], [35.176071, 31.833241], [35.176189, 31.833258], [35.176298, 31.83338], [35.176302, 31.833557], [35.176274, 31.833767], [35.176323, 31.833981], [35.176484, 31.834141], [35.176628, 31.83431], [35.176815, 31.834524], [35.176936, 31.834698], [35.177036, 31.834906], [35.17713, 31.8351], [35.177158, 31.835343], [35.177118, 31.835535], [35.177135, 31.835769], [35.177244, 31.835919], [35.177403, 31.836022], [35.177584, 31.836095], [35.177711, 31.836245], [35.177749, 31.836464], [35.177768, 31.836781], [35.177784, 31.836981], [35.177811, 31.837186], [35.177882, 31.837352], [35.177539, 31.838216]]}, "properties": {"Name": "An Nabi Samuel 2", "ClosureTypeL": 2, "Status": "2"}}, {"type": "Feature", "geometry": {"type": "LineString", "coordinates": [[35.177548, 31.838198], [35.175737, 31.841637], [35.174058, 31.845039], [35.172987, 31.847252], [35.173001, 31.8474], [35.173043, 31.847549], [35.173121, 31.847765], [35.173, 31.84781], [35.172954, 31.84773], [35.172875, 31.847672], [35.172814, 31.847644], [35.172419, 31.848498], [35.172118, 31.849279], [35.171892, 31.850165], [35.171864, 31.851117], [35.171866, 31.851681], [35.171919, 31.852076], [35.171959, 31.85238], [35.172019, 31.852658], [35.17211, 31.853078], [35.17244, 31.853945], [35.173263, 31.855814], [35.173603, 31.856541], [35.174124, 31.857656], [35.174446, 31.857592], [35.174852, 31.85744], [35.175259, 31.857247], [35.175579, 31.857127]]}, "properties": {"Name": "Al Jib Road Barrier", "ClosureTypeL": 2, "Status": "2"}}, {"type": "Feature", "geometry": {"type": "LineString", "coordinates": [[35.097674, 31.887583], [35.098281, 31.887343], [35.098745, 31.887241], [35.099257, 31.887223], [35.099807, 31.887223], [35.100117, 31.887218], [35.100375, 31.887178], [35.102603, 31.886638], [35.103338, 31.886452], [35.103412, 31.886443], [35.104025, 31.886349], [35.104116, 31.886341]]}, "properties": {"Name": "Beit 'Ur At Tahta Rd 443 Rd Barrier North 1", "ClosureTypeL": 2, "Status": "2"}}, {"type": "Feature", "geometry": {"type": "LineString", "coordinates": [[35.129424, 31.875156], [35.129186, 31.875153], [35.129028, 31.875237], [35.128914, 31.875297], [35.12881, 31.875352], [35.128445, 31.875539], [35.128358, 31.875612], [35.128314, 31.875643], [35.128278, 31.875673], [35.128094, 31.875837], [35.127959, 31.875914], [35.12741, 31.876159], [35.126703, 31.876358], [35.125732, 31.876672], [35.125166, 31.876962], [35.12505, 31.877095], [35.124973, 31.877369], [35.124972, 31.877382]]}, "properties": {"Name": "At Tira Rd 443 Road Barrier North", "ClosureTypeL": 2, "Status": "2"}}, {"type": "Feature", "geometry": {"type": "LineString", "coordinates": [[35.12488, 31.878296], [35.124779, 31.878469], [35.123852, 31.878666], [35.123214, 31.878893], [35.122511, 31.87929], [35.121564, 31.880107], [35.121161, 31.880464], [35.120847, 31.88082], [35.120443, 31.881153], [35.120241, 31.88132], [35.119994, 31.881523]]}, "properties": {"Name": "At Tira Rd 443 Road Barrier North", "ClosureTypeL": 2, "Status": "2"}}, {"type": "Feature", "geometry": {"type": "LineString", "coordinates": [[35.177065, 31.882449], [35.177079, 31.882271], [35.177103, 31.882069], [35.176839, 31.881954], [35.176627, 31.881856], [35.176481, 31.881643], [35.176362, 31.881339], [35.176336, 31.881152], [35.176289, 31.880829], [35.176318, 31.88053], [35.176354, 31.880304], [35.176776, 31.880286], [35.177179, 31.880348], [35.17769, 31.878508], [35.17786, 31.877832], [35.178123, 31.87698], [35.178335, 31.876577], [35.178661, 31.875841], [35.178844, 31.875294], [35.178995, 31.874681], [35.179176, 31.874065], [35.179288, 31.873439], [35.179355, 31.873127], [35.1794, 31.872906], [35.179314, 31.872786], [35.179231, 31.872932], [35.179071, 31.872967], [35.178971, 31.872847], [35.179038, 31.872721], [35.179186, 31.872602], [35.179221, 31.872507], [35.17905, 31.87228], [35.178863, 31.872099], [35.178608, 31.87196], [35.178296, 31.871901], [35.177959, 31.871865], [35.17766, 31.87189], [35.177302, 31.871946], [35.17701, 31.87199], [35.176862, 31.872006], [35.176608, 31.872082], [35.176138, 31.872138], [35.175762, 31.872192], [35.175451, 31.872234], [35.175181, 31.872273], [35.174966, 31.872322], [35.174951, 31.872325], [35.17493, 31.872328], [35.174909, 31.872333], [35.17489, 31.872339], [35.174862, 31.872349], [35.174843, 31.872355], [35.174825, 31.872358], [35.174806, 31.872365], [35.174786, 31.872368], [35.174765, 31.872373], [35.174743, 31.872387], [35.174712, 31.872397], [35.174676, 31.872399], [35.174633, 31.872397], [35.174588, 31.872399], [35.174538, 31.8724], [35.174472, 31.872408], [35.174406, 31.872413], [35.174337, 31.872419], [35.174265, 31.87243], [35.174196, 31.872439], [35.174118, 31.872447], [35.174039, 31.872458], [35.173954, 31.872474], [35.173869, 31.87249], [35.173788, 31.872505], [35.173706, 31.87252], [35.173622, 31.872537], [35.173529, 31.872557], [35.173443, 31.872572], [35.173362, 31.872583], [35.173283, 31.872594], [35.173206, 31.872606], [35.173129, 31.872616], [35.173048, 31.87263], [35.172971, 31.872642], [35.172894, 31.872653], [35.172815, 31.872665], [35.172733, 31.872677], [35.172649, 31.872689], [35.172565, 31.872702], [35.172477, 31.872717], [35.17239, 31.872731], [35.172311, 31.872745], [35.172227, 31.872761], [35.172145, 31.872776], [35.17207, 31.872789], [35.171986, 31.872803], [35.171901, 31.872817], [35.17181, 31.872835], [35.171715, 31.872859], [35.171621, 31.872883], [35.171526, 31.872907], [35.171428, 31.872928], [35.171329, 31.872956], [35.171241, 31.872973], [35.171149, 31.872988], [35.171054, 31.873007], [35.170958, 31.873027], [35.170857, 31.873048], [35.17076, 31.873068], [35.170666, 31.87309], [35.170573, 31.873113], [35.17048, 31.87313], [35.170388, 31.873147], [35.170294, 31.873163], [35.1702, 31.873183], [35.17011, 31.873205], [35.170021, 31.873223], [35.169931, 31.873237], [35.169842, 31.873259], [35.169755, 31.873278], [35.169671, 31.873295], [35.169586, 31.873315], [35.169501, 31.873335], [35.169422, 31.873348], [35.169343, 31.873362], [35.169262, 31.873376], [35.169172, 31.873394], [35.169081, 31.873414], [35.168983, 31.873437], [35.168885, 31.873457], [35.168788, 31.873473], [35.168674, 31.873494], [35.168546, 31.873518], [35.168405, 31.873542], [35.168251, 31.87358], [35.168092, 31.873614], [35.167925, 31.87365], [35.16775, 31.873686], [35.167574, 31.873721], [35.167395, 31.87376], [35.16721, 31.873806], [35.167018, 31.873846], [35.166825, 31.873882], [35.166626, 31.873928], [35.166432, 31.873965], [35.16623, 31.874005], [35.166028, 31.874048], [35.165824, 31.8741], [35.165625, 31.874142], [35.165434, 31.874182], [35.165248, 31.874219], [35.165066, 31.874254], [35.164889, 31.874284], [35.164712, 31.874319], [35.164538, 31.874354], [35.164367, 31.874382], [35.164195, 31.874417], [35.164023, 31.874447], [35.163847, 31.874486], [35.163671, 31.874523], [35.163496, 31.874553], [35.163321, 31.87458], [35.163142, 31.874607], [35.162958, 31.874632], [35.162771, 31.874653], [35.162583, 31.87467], [35.162393, 31.874681], [35.162206, 31.874685], [35.162015, 31.874687], [35.161819, 31.874683], [35.161616, 31.874678], [35.161417, 31.874664], [35.161222, 31.874641], [35.161021, 31.874611], [35.16082, 31.874575], [35.160622, 31.874534], [35.160427, 31.874497], [35.160236, 31.874458], [35.160045, 31.874411], [35.159853, 31.874356], [35.159664, 31.8743], [35.159478, 31.874234], [35.159295, 31.874164], [35.159115, 31.874096], [35.158938, 31.874023], [35.158762, 31.873948], [35.15859, 31.873863], [35.15842, 31.873771], [35.158254, 31.873681], [35.158092, 31.873587], [35.157934, 31.873492], [35.157779, 31.873396], [35.157627, 31.873292], [35.157481, 31.873179], [35.157336, 31.873063], [35.157194, 31.872945], [35.157052, 31.872827], [35.156913, 31.87271], [35.156775, 31.872594], [35.156639, 31.872481], [35.156505, 31.872366], [35.156376, 31.872249], [35.156246, 31.872134], [35.156116, 31.872021], [35.155988, 31.87191], [35.155858, 31.871802], [35.155731, 31.871692], [35.155608, 31.871578], [35.155484, 31.871465], [35.155356, 31.871357], [35.155228, 31.871249], [35.155101, 31.87114], [35.154974, 31.871033], [35.154845, 31.870926], [35.154711, 31.870821], [35.154568, 31.870722], [35.154426, 31.870621], [35.154278, 31.870524], [35.154125, 31.870435], [35.153965, 31.87035], [35.153798, 31.870271], [35.153625, 31.870197], [35.153449, 31.870132], [35.153267, 31.87007], [35.15308, 31.870012], [35.15289, 31.869964], [35.152698, 31.869921], [35.152504, 31.869888], [35.152303, 31.869859], [35.152102, 31.869841], [35.151898, 31.869839], [35.151694, 31.869844], [35.151482, 31.869857], [35.151278, 31.869875], [35.151078, 31.869895], [35.150884, 31.869916], [35.150689, 31.869937], [35.150501, 31.869956], [35.150321, 31.86997], [35.150145, 31.869985], [35.14997, 31.87], [35.149792, 31.870015], [35.149618, 31.870031], [35.149447, 31.870049], [35.149279, 31.870068], [35.149111, 31.870091], [35.148945, 31.870103], [35.148778, 31.870117], [35.14861, 31.870133], [35.148443, 31.870148], [35.148273, 31.870168], [35.148099, 31.870188], [35.147921, 31.870208], [35.147743, 31.870225], [35.147565, 31.870238], [35.147386, 31.870254], [35.147204, 31.870269], [35.14702, 31.870289], [35.146839, 31.870303], [35.14666, 31.870315], [35.146478, 31.870328], [35.1463, 31.870341], [35.146134, 31.870347], [35.145959, 31.870359], [35.145778, 31.870366], [35.145601, 31.870366], [35.145421, 31.87036], [35.145242, 31.870354], [35.145062, 31.870345], [35.144879, 31.870332], [35.144696, 31.870321], [35.14451, 31.870307], [35.144317, 31.870295], [35.144121, 31.870277], [35.143925, 31.870254], [35.143723, 31.870238], [35.143518, 31.870223], [35.143312, 31.870209], [35.143107, 31.870194], [35.142902, 31.87018], [35.142692, 31.870168], [35.142484, 31.870155], [35.142274, 31.87014], [35.142068, 31.870121], [35.141859, 31.870104], [35.141645, 31.87009], [35.14143, 31.870079], [35.141217, 31.870068], [35.141005, 31.870059], [35.14079, 31.870053], [35.140577, 31.870045], [35.140366, 31.870047], [35.140161, 31.87005], [35.139953, 31.870054], [35.139739, 31.870066], [35.139534, 31.870074], [35.139329, 31.870092], [35.139124, 31.870108], [35.138918, 31.87013], [35.138714, 31.870153], [35.138509, 31.870181], [35.138308, 31.87021], [35.13811, 31.870243], [35.137906, 31.870283], [35.137701, 31.870331], [35.137497, 31.870382], [35.137298, 31.870441], [35.1371, 31.870499], [35.136904, 31.870562], [35.136711, 31.870627], [35.136527, 31.870694], [35.136343, 31.870773], [35.136164, 31.87086], [35.135989, 31.870943], [35.135818, 31.871027], [35.135646, 31.871113], [35.135478, 31.871202], [35.135307, 31.871302], [35.135139, 31.871404], [35.134974, 31.87151], [35.134809, 31.871613], [35.134643, 31.871717], [35.134478, 31.871825], [35.134313, 31.871931], [35.134147, 31.872039], [35.133979, 31.872145], [35.133812, 31.872252], [35.133642, 31.872356], [35.133479, 31.872463]]}, "properties": {"Name": "Beituniya Road 443 Road Barrier", "ClosureTypeL": 2, "Status": "2"}}, {"type": "Feature", "geometry": {"type": "LineString", "coordinates": [[35.116289, 31.878212], [35.11627, 31.878224], [35.116264, 31.878226], [35.11622, 31.878239], [35.116197, 31.878247], [35.116139, 31.878275], [35.115748, 31.878523], [35.114936, 31.879271], [35.11361, 31.880754], [35.113523, 31.880961], [35.113425, 31.881071], [35.113296, 31.881142], [35.113095, 31.881445], [35.11291, 31.88172], [35.112764, 31.881883]]}, "properties": {"Name": "Beit Ur Al Fauqa Road 443 Rd Barrier North 1", "ClosureTypeL": 2, "Status": "2"}}, {"type": "Feature", "geometry": {"type": "LineString", "coordinates": [[35.257999, 31.797355], [35.258125, 31.797498], [35.258179, 31.797559], [35.258296, 31.797725], [35.258342, 31.797824], [35.258452, 31.797967], [35.259913, 31.798134], [35.260263, 31.798223], [35.260633, 31.798344], [35.261035, 31.798513], [35.261449, 31.798682], [35.261901, 31.798864]]}, "properties": {"Name": null, "ClosureTypeL": 2, "Status": "2"}}, {"type": "Feature", "geometry": {"type": "LineString", "coordinates": [[35.291424, 31.889374], [35.291423, 31.889406], [35.291415, 31.889403], [35.291405, 31.889393], [35.291377, 31.889389], [35.291358, 31.889388], [35.291333, 31.889387], [35.291316, 31.889387], [35.29129, 31.889388], [35.291277, 31.889385], [35.291255, 31.889373], [35.291242, 31.88936], [35.291232, 31.889347], [35.291216, 31.88933], [35.291201, 31.88931], [35.291191, 31.889302], [35.291178, 31.889299], [35.291156, 31.889307], [35.291147, 31.889311], [35.291127, 31.889319], [35.291095, 31.889344], [35.291089, 31.88935], [35.291083, 31.889356], [35.291048, 31.889372], [35.291032, 31.889374], [35.290982, 31.889366], [35.29096, 31.889354], [35.290899, 31.88934], [35.290867, 31.889349], [35.290846, 31.889351], [35.290827, 31.889361], [35.290802, 31.889381], [35.290777, 31.889408], [35.290773, 31.889409], [35.290709, 31.889337], [35.290706, 31.889332], [35.290673, 31.889316], [35.290655, 31.8893], [35.290639, 31.88927], [35.290615, 31.889248], [35.290619, 31.889234], [35.290608, 31.8892], [35.2906, 31.889167], [35.290607, 31.889114]]}, "properties": {"Name": "Deir Dibwan EW 1", "ClosureTypeL": 1, "Status": "2"}}, {"type": "Feature", "geometry": {"type": "LineString", "coordinates": [[35.200616, 31.862269], [35.200357, 31.862375], [35.20012, 31.862517], [35.19977, 31.862619], [35.199441, 31.862789], [35.199099, 31.862909], [35.198683, 31.863054], [35.19837, 31.863192], [35.198183, 31.863337]]}, "properties": {"Name": "Qalandiya -Rafat RB 2", "ClosureTypeL": 2, "Status": "2"}}, {"type": "Feature", "geometry": {"type": "LineString", "coordinates": [[35.165992, 31.831195], [35.165961, 31.831207], [35.165881, 31.831202], [35.165827, 31.831197], [35.165777, 31.831185], [35.16573, 31.831181], [35.165719, 31.83118], [35.165698, 31.83117], [35.165659, 31.831166], [35.165609, 31.83119], [35.165584, 31.83119], [35.165508, 31.831204], [35.165464, 31.831197], [35.165403, 31.831185], [35.165354, 31.831182], [35.165341, 31.831169], [35.165344, 31.831179], [35.165293, 31.831176]]}, "properties": {"Name": "Old Biddu road EW", "ClosureTypeL": 1, "Status": "2"}}, {"type": "Feature", "geometry": {"type": "LineString", "coordinates": [[35.165424, 31.831347], [35.165386, 31.831346], [35.165342, 31.831348], [35.165299, 31.831348], [35.165286, 31.83134], [35.165246, 31.831362], [35.165251, 31.831382], [35.165227, 31.831446], [35.165216, 31.831495], [35.165205, 31.831522], [35.165181, 31.831594], [35.16515, 31.831669], [35.165138, 31.831707], [35.165125, 31.831753], [35.165124, 31.831782], [35.165144, 31.831813]]}, "properties": {"Name": "Old Biddu Road EW 2", "ClosureTypeL": 1, "Status": "2"}}, {"type": "Feature", "geometry": {"type": "LineString", "coordinates": [[35.167133, 31.838358], [35.166145, 31.83838], [35.165506, 31.838313], [35.164522, 31.838489], [35.163784, 31.838313], [35.163144, 31.838163]]}, "properties": {"Name": "Beit Iksa Bedouins", "ClosureTypeL": 2, "Status": "2"}}, {"type": "Feature", "geometry": {"type": "LineString", "coordinates": [[35.164992, 31.83749], [35.165039, 31.837483], [35.164929, 31.837338], [35.164903, 31.836847], [35.16461, 31.836902], [35.164283, 31.836826], [35.164097, 31.836706], [35.163881, 31.836538], [35.163658, 31.836485], [35.163432, 31.836428], [35.163304, 31.836353], [35.162996, 31.836279], [35.162799, 31.836215], [35.162617, 31.836129], [35.16236, 31.836044], [35.162214, 31.835963], [35.162071, 31.835835], [35.162059, 31.83575], [35.162201, 31.835602], [35.162368, 31.835547], [35.162492, 31.83546], [35.162579, 31.835403], [35.162631, 31.835389], [35.162734, 31.835316], [35.162782, 31.835242], [35.162809, 31.835124], [35.162821, 31.834987], [35.162841, 31.834935], [35.162875, 31.834898], [35.162919, 31.834871], [35.163015, 31.834806], [35.163106, 31.834717], [35.16319, 31.834606], [35.163294, 31.834519], [35.163474, 31.834385], [35.163575, 31.834285], [35.163731, 31.834115], [35.163919, 31.833975], [35.16406, 31.833906], [35.164174, 31.833831], [35.164268, 31.833727], [35.164329, 31.833618], [35.164378, 31.833426], [35.164411, 31.83327], [35.164446, 31.833119], [35.164506, 31.832977], [35.164537, 31.832916], [35.164525, 31.832762], [35.164453, 31.832541], [35.16443, 31.832415], [35.164432, 31.83236], [35.164464, 31.832225], [35.164485, 31.832134], [35.164495, 31.832053], [35.16451, 31.831913], [35.164522, 31.831803], [35.164608, 31.831635], [35.16466, 31.831475], [35.164645, 31.831387]]}, "properties": {"Name": "Road to Beit Iksa Bedwins", "ClosureTypeL": 2, "Status": "2"}}, {"type": "Feature", "geometry": {"type": "LineString", "coordinates": [[35.050269, 31.895954], [35.050274, 31.895867], [35.050276, 31.895823], [35.050266, 31.895746], [35.050257, 31.895698], [35.05026, 31.895596], [35.050234, 31.895506], [35.050245, 31.895421], [35.050217, 31.895327], [35.050173, 31.895244], [35.050166, 31.895227]]}, "properties": {"Name": "Beit Ur at Tahta Road Barrier 2", "ClosureTypeL": 2, "Status": "2"}}, {"type": "Feature", "geometry": {"type": "LineString", "coordinates": [[35.048601, 31.895953], [35.048618, 31.895887], [35.048628, 31.895816], [35.048604, 31.895725], [35.048534, 31.895669]]}, "properties": {"Name": "Beit Ur at Tahta Road Barrier 1", "ClosureTypeL": 2, "Status": "2"}}, {"type": "Feature", "geometry": {"type": "LineString", "coordinates": [[35.213094, 31.81884], [35.213094, 31.818841], [35.213094, 31.818841], [35.213095, 31.818841], [35.213095, 31.818842], [35.213095, 31.818842], [35.213095, 31.818843], [35.213241, 31.819042], [35.213365, 31.819257], [35.213459, 31.819485], [35.213529, 31.819693]]}, "properties": {"Name": "Beit Hanina Road 45 Road Barrier 1", "ClosureTypeL": 2, "Status": "2"}}, {"type": "Feature", "geometry": {"type": "LineString", "coordinates": [[35.221696, 31.927585], [35.221686, 31.927719], [35.22168, 31.927818], [35.221614, 31.927955], [35.221509, 31.928258], [35.221379, 31.928531], [35.221339, 31.928887], [35.221206, 31.929285], [35.221055, 31.92973], [35.220877, 31.93019], [35.220709, 31.930672], [35.22066, 31.930805]]}, "properties": {"Name": "Beit il-Old Road 60 Road Barrier", "ClosureTypeL": 2, "Status": "1"}}, {"type": "Feature", "geometry": {"type": "LineString", "coordinates": [[35.22043, 31.936827], [35.220339, 31.936993], [35.220014, 31.937409], [35.21936, 31.93785], [35.218804, 31.938265], [35.218246, 31.938704], [35.217836, 31.939203], [35.217589, 31.939706], [35.217249, 31.940262], [35.21681, 31.940873], [35.21634, 31.941518], [35.215914, 31.94205], [35.215907, 31.942059]]}, "properties": {"Name": "Beit il-Old Road 60 Road Barrier", "ClosureTypeL": 2, "Status": "1"}}, {"type": "Feature", "geometry": {"type": "LineString", "coordinates": [[35.21588, 31.942094], [35.215541, 31.942531]]}, "properties": {"Name": "Beit il-Old Road 60 Road Barrier", "ClosureTypeL": 2, "Status": "1"}}, {"type": "Feature", "geometry": {"type": "LineString", "coordinates": [[35.118343, 31.924605], [35.118305, 31.924628], [35.118213, 31.924735], [35.118059, 31.924923], [35.117853, 31.92513], [35.11773, 31.925303], [35.117613, 31.925448], [35.117516, 31.925607], [35.117432, 31.925774], [35.117378, 31.926033], [35.117297, 31.92628], [35.117231, 31.92651], [35.117152, 31.926719], [35.117095, 31.926894], [35.117045, 31.927073], [35.116951, 31.927256], [35.116846, 31.927457], [35.116757, 31.927584], [35.116635, 31.927725]]}, "properties": {"Name": "Deir Ibzi barbed wire", "ClosureTypeL": 2, "Status": "1"}}, {"type": "Feature", "geometry": {"type": "LineString", "coordinates": [[35.256993, 31.829588], [35.257021, 31.829607], [35.257069, 31.829629], [35.257116, 31.829677], [35.257168, 31.829706], [35.25722, 31.829741], [35.257248, 31.829798], [35.257242, 31.829837], [35.257275, 31.829864], [35.257319, 31.829889], [35.257371, 31.829914], [35.257377, 31.829953], [35.257427, 31.830002], [35.257477, 31.830023], [35.257522, 31.830006], [35.257557, 31.829997], [35.257596, 31.829974], [35.257656, 31.829961], [35.257706, 31.829947], [35.257751, 31.829934], [35.257832, 31.829943], [35.25789, 31.829927], [35.257959, 31.829928], [35.258035, 31.829911], [35.258083, 31.829899], [35.258138, 31.829908], [35.258181, 31.829904], [35.25823, 31.829897], [35.258272, 31.829902], [35.258305, 31.829892], [35.25835, 31.829875], [35.258402, 31.829873], [35.258398, 31.829897], [35.258426, 31.829905], [35.258456, 31.829902], [35.258492, 31.829911], [35.25854, 31.829924], [35.258584, 31.829944], [35.258621, 31.829956], [35.258655, 31.829959], [35.258689, 31.829944], [35.258719, 31.829941], [35.258772, 31.829938], [35.258824, 31.829937], [35.258878, 31.829966], [35.258915, 31.829975], [35.258945, 31.829978], [35.258964, 31.829959], [35.258969, 31.82993], [35.259005, 31.829884], [35.259014, 31.829843], [35.259043, 31.829826], [35.259066, 31.829813], [35.259094, 31.829821], [35.259122, 31.829824], [35.259144, 31.829809], [35.259176, 31.829793], [35.259191, 31.829813], [35.259237, 31.829786], [35.259244, 31.829791], [35.259307, 31.829757], [35.259367, 31.829715], [35.25942, 31.829681], [35.259451, 31.829663], [35.259501, 31.829629], [35.259544, 31.8296], [35.259583, 31.829564], [35.259638, 31.829546], [35.259679, 31.829524], [35.259707, 31.82952], [35.259718, 31.829523], [35.259777, 31.829493], [35.259845, 31.829485], [35.259911, 31.829484], [35.259968, 31.829479], [35.260026, 31.829485], [35.26009, 31.829497], [35.260126, 31.829499], [35.260163, 31.829535], [35.26022, 31.82956], [35.260275, 31.829577], [35.260336, 31.829574], [35.260401, 31.8296], [35.260444, 31.82963], [35.260501, 31.829634], [35.260548, 31.829646], [35.260525, 31.829626], [35.260555, 31.829636], [35.260625, 31.829638], [35.260699, 31.829656], [35.26076, 31.829651], [35.26081, 31.829628], [35.260868, 31.829609], [35.260928, 31.829604], [35.26099, 31.829594], [35.26104, 31.8296], [35.26108, 31.82958], [35.261145, 31.829577], [35.261187, 31.82955], [35.261243, 31.829524], [35.261299, 31.829503], [35.261354, 31.829479], [35.261418, 31.829475]]}, "properties": {"Name": "Hizma Rd 437 Rd Barrier 1", "ClosureTypeL": 2, "Status": "1"}}, {"type": "Feature", "geometry": {"type": "LineString", "coordinates": [[35.262128, 31.827712], [35.262098, 31.827728], [35.262033, 31.827819], [35.261918, 31.827849], [35.261848, 31.827884], [35.261511, 31.827942], [35.26142, 31.827974]]}, "properties": {"Name": "Hizma Rd 437 Earthwall", "ClosureTypeL": 1, "Status": "1"}}, {"type": "Feature", "geometry": {"type": "LineString", "coordinates": [[35.263567, 31.827001], [35.263455, 31.827057], [35.263346, 31.827112], [35.263213, 31.827172], [35.263124, 31.827243], [35.263021, 31.827251], [35.262957, 31.827281], [35.262893, 31.82731], [35.262856, 31.827359]]}, "properties": {"Name": "Hizma Tublas Earthwall", "ClosureTypeL": 1, "Status": "1"}}, {"type": "Feature", "geometry": {"type": "LineString", "coordinates": [[35.119026, 31.877078], [35.11906, 31.877087], [35.119115, 31.877076], [35.119174, 31.877068], [35.119228, 31.877056], [35.119284, 31.877038], [35.119326, 31.877], [35.119357, 31.876957], [35.119399, 31.876932], [35.119475, 31.87694]]}, "properties": {"Name": "At Tira Rd 443 south Rd Barrier", "ClosureTypeL": 2, "Status": "2"}}, {"type": "Feature", "geometry": {"type": "LineString", "coordinates": [[35.187483, 31.826425], [35.187479, 31.826396], [35.187467, 31.826361], [35.18746, 31.826316]]}, "properties": {"Name": "Beit Iksa-Ramot linear closure", "ClosureTypeL": 2, "Status": "2"}}, {"type": "Feature", "geometry": {"type": "LineString", "coordinates": [[35.187469, 31.826304], [35.187481, 31.826265], [35.187476, 31.826242]]}, "properties": {"Name": "Beit Iksa Gate Rd Barrier ", "ClosureTypeL": 2, "Status": "2"}}]}